{
  "type": "FeatureCollection",
  "features": [
    {
      "type": "Feature",
      "properties": {
        "norad_id": 38250,
        "name": "BEIDOU-2 M3 (C11)",
        "group": "beidou",
        "lat": -4.720833410975251,
        "lon": 134.54190818145375,
        "alt_km": 21526.89768477768,
        "timestamp": "2025-12-06T16:45:42.987088+00:00",
        "meta_object_name": "BEIDOU-2 M3 (C11)",
        "meta_object_id": "2012-018A",
        "meta_epoch": "2025-12-05T21:12:32.531040",
        "meta_mean_motion": 1.86229708,
        "meta_eccentricity": 0.00244284,
        "meta_inclination": 55.926,
        "meta_ra_of_asc_node": 311.388,
        "meta_arg_of_pericenter": 273.8805,
        "meta_mean_anomaly": 85.8231,
        "meta_ephemeris_type": 0,
        "meta_classification_type": "U",
        "meta_norad_cat_id": 38250,
        "meta_element_set_no": 999,
        "meta_rev_at_epoch": 9234,
        "meta_bstar": 0,
        "meta_mean_motion_dot": -7e-07,
        "meta_mean_motion_ddot": 0,
        "tle_line1": "1 38250U 12018A   25339.88370985 -.00000070  00000+0  00000+0 0  9996",
        "tle_line2": "2 38250  55.9260 311.3880 0024428 273.8805  85.8231  1.86229708 92342"
      },
      "geometry": {
        "type": "Point",
        "coordinates": [
          134.54190818145375,
          -4.720833410975251
        ]
      }
    },
    {
      "type": "Feature",
      "properties": {
        "norad_id": 38251,
        "name": "BEIDOU-2 M4 (C12)",
        "group": "beidou",
        "lat": -40.35565535946086,
        "lon": 165.80563589716792,
        "alt_km": 21502.523953965443,
        "timestamp": "2025-12-06T16:45:42.987099+00:00",
        "meta_object_name": "BEIDOU-2 M4 (C12)",
        "meta_object_id": "2012-018B",
        "meta_epoch": "2025-12-05T06:41:27.869856",
        "meta_mean_motion": 1.86229397,
        "meta_eccentricity": 0.00155808,
        "meta_inclination": 55.8281,
        "meta_ra_of_asc_node": 310.638,
        "meta_arg_of_pericenter": 277.012,
        "meta_mean_anomaly": 82.7935,
        "meta_ephemeris_type": 0,
        "meta_classification_type": "U",
        "meta_norad_cat_id": 38251,
        "meta_element_set_no": 999,
        "meta_rev_at_epoch": 9233,
        "meta_bstar": 0,
        "meta_mean_motion_dot": -6.9e-07,
        "meta_mean_motion_ddot": 0,
        "tle_line1": "1 38251U 12018B   25339.27879479 -.00000069  00000+0  00000+0 0  9990",
        "tle_line2": "2 38251  55.8281 310.6380 0015580 277.0120  82.7935  1.86229397 92337"
      },
      "geometry": {
        "type": "Point",
        "coordinates": [
          165.80563589716792,
          -40.35565535946086
        ]
      }
    },
    {
      "type": "Feature",
      "properties": {
        "norad_id": 38775,
        "name": "BEIDOU-2 M6 (C14)",
        "group": "beidou",
        "lat": 49.36989693153925,
        "lon": 120.02789850361755,
        "alt_km": 21516.765976714574,
        "timestamp": "2025-12-06T16:45:42.987110+00:00",
        "meta_object_name": "BEIDOU-2 M6 (C14)",
        "meta_object_id": "2012-050B",
        "meta_epoch": "2025-12-06T01:31:40.746720",
        "meta_mean_motion": 1.86230698,
        "meta_eccentricity": 0.00109594,
        "meta_inclination": 56.3729,
        "meta_ra_of_asc_node": 69.2891,
        "meta_arg_of_pericenter": 345.8795,
        "meta_mean_anomaly": 14.1028,
        "meta_ephemeris_type": 0,
        "meta_classification_type": "U",
        "meta_norad_cat_id": 38775,
        "meta_element_set_no": 999,
        "meta_rev_at_epoch": 8971,
        "meta_bstar": 0,
        "meta_mean_motion_dot": -4.7e-07,
        "meta_mean_motion_ddot": 0,
        "tle_line1": "1 38775U 12050B   25340.06366605 -.00000047  00000+0  00000+0 0  9994",
        "tle_line2": "2 38775  56.3729  69.2891 0010959 345.8795  14.1028  1.86230698 89718"
      },
      "geometry": {
        "type": "Point",
        "coordinates": [
          120.02789850361755,
          49.36989693153925
        ]
      }
    },
    {
      "type": "Feature",
      "properties": {
        "norad_id": 38953,
        "name": "BEIDOU-2 G6 (C02)",
        "group": "beidou",
        "lat": -1.593821635320248,
        "lon": 51.31087357810795,
        "alt_km": 35764.86659273311,
        "timestamp": "2025-12-06T16:45:42.987122+00:00",
        "meta_object_name": "BEIDOU-2 G6 (C02)",
        "meta_object_id": "2012-059A",
        "meta_epoch": "2025-12-06T03:47:35.748960",
        "meta_mean_motion": 1.00270309,
        "meta_eccentricity": 0.00075213,
        "meta_inclination": 3.9317,
        "meta_ra_of_asc_node": 75.5675,
        "meta_arg_of_pericenter": 289.3051,
        "meta_mean_anomaly": 211.2727,
        "meta_ephemeris_type": 0,
        "meta_classification_type": "U",
        "meta_norad_cat_id": 38953,
        "meta_element_set_no": 999,
        "meta_rev_at_epoch": 4797,
        "meta_bstar": 0,
        "meta_mean_motion_dot": -1.69e-06,
        "meta_mean_motion_ddot": 0,
        "tle_line1": "1 38953U 12059A   25340.15805265 -.00000169  00000+0  00000+0 0  9996",
        "tle_line2": "2 38953   3.9317  75.5675 0007521 289.3051 211.2727  1.00270309 47972"
      },
      "geometry": {
        "type": "Point",
        "coordinates": [
          51.31087357810795,
          -1.593821635320248
        ]
      }
    },
    {
      "type": "Feature",
      "properties": {
        "norad_id": 40748,
        "name": "BEIDOU-3S M2S (C58)",
        "group": "beidou",
        "lat": 54.82816276863714,
        "lon": 45.874064612232935,
        "alt_km": 21556.309127170236,
        "timestamp": "2025-12-06T16:45:42.987134+00:00",
        "meta_object_name": "BEIDOU-3S M2S (C58)",
        "meta_object_id": "2015-037A",
        "meta_epoch": "2025-12-04T09:50:19.277376",
        "meta_mean_motion": 1.86229056,
        "meta_eccentricity": 0.00124004,
        "meta_inclination": 55.0462,
        "meta_ra_of_asc_node": 308.7497,
        "meta_arg_of_pericenter": 267.6151,
        "meta_mean_anomaly": 92.2259,
        "meta_ephemeris_type": 0,
        "meta_classification_type": "U",
        "meta_norad_cat_id": 40748,
        "meta_element_set_no": 999,
        "meta_rev_at_epoch": 7049,
        "meta_bstar": 0,
        "meta_mean_motion_dot": -6.8e-07,
        "meta_mean_motion_ddot": 0,
        "tle_line1": "1 40748U 15037A   25338.40994534 -.00000068  00000+0  00000+0 0  9991",
        "tle_line2": "2 40748  55.0462 308.7497 0012400 267.6151  92.2259  1.86229056 70498"
      },
      "geometry": {
        "type": "Point",
        "coordinates": [
          45.874064612232935,
          54.82816276863714
        ]
      }
    },
    {
      "type": "Feature",
      "properties": {
        "norad_id": 40749,
        "name": "BEIDOU-3S M1S (C57)",
        "group": "beidou",
        "lat": -45.56488408472966,
        "lon": -96.8493699009123,
        "alt_km": 21525.890135196685,
        "timestamp": "2025-12-06T16:45:42.987145+00:00",
        "meta_object_name": "BEIDOU-3S M1S (C57)",
        "meta_object_id": "2015-037B",
        "meta_epoch": "2025-12-01T22:57:46.412352",
        "meta_mean_motion": 1.86253762,
        "meta_eccentricity": 0.0003321,
        "meta_inclination": 55.0451,
        "meta_ra_of_asc_node": 308.8236,
        "meta_arg_of_pericenter": 355.9906,
        "meta_mean_anomaly": 3.9975,
        "meta_ephemeris_type": 0,
        "meta_classification_type": "U",
        "meta_norad_cat_id": 40749,
        "meta_element_set_no": 999,
        "meta_rev_at_epoch": 7045,
        "meta_bstar": 0,
        "meta_mean_motion_dot": -6e-07,
        "meta_mean_motion_ddot": 0,
        "tle_line1": "1 40749U 15037B   25335.95678718 -.00000060  00000+0  00000+0 0  9994",
        "tle_line2": "2 40749  55.0451 308.8236 0003321 355.9906   3.9975  1.86253762 70451"
      },
      "geometry": {
        "type": "Point",
        "coordinates": [
          -96.8493699009123,
          -45.56488408472966
        ]
      }
    },
    {
      "type": "Feature",
      "properties": {
        "norad_id": 40938,
        "name": "BEIDOU-3S IGSO-2S (C56)",
        "group": "beidou",
        "lat": 13.721495034164956,
        "lon": 69.05500570364384,
        "alt_km": 35554.09502813812,
        "timestamp": "2025-12-06T16:45:42.987157+00:00",
        "meta_object_name": "BEIDOU-3S IGSO-2S (C56)",
        "meta_object_id": "2015-053A",
        "meta_epoch": "2025-12-03T17:17:32.013024",
        "meta_mean_motion": 1.0027148,
        "meta_eccentricity": 0.00611089,
        "meta_inclination": 49.5266,
        "meta_ra_of_asc_node": 261.1136,
        "meta_arg_of_pericenter": 188.632,
        "meta_mean_anomaly": 338.5579,
        "meta_ephemeris_type": 0,
        "meta_classification_type": "U",
        "meta_norad_cat_id": 40938,
        "meta_element_set_no": 999,
        "meta_rev_at_epoch": 3739,
        "meta_bstar": 0,
        "meta_mean_motion_dot": -1.53e-06,
        "meta_mean_motion_ddot": 0,
        "tle_line1": "1 40938U 15053A   25337.72050941 -.00000153  00000+0  00000+0 0  9994",
        "tle_line2": "2 40938  49.5266 261.1136 0061108 188.6320 338.5579  1.00271480 37397"
      },
      "geometry": {
        "type": "Point",
        "coordinates": [
          69.05500570364384,
          13.721495034164956
        ]
      }
    }
  ]
}